[{"OBJECT_NAME":"ISS OBJECT XW","OBJECT_ID":"1998-067XW","EPOCH":"2026-04-27T09:46:16.901184","MEAN_MOTION":15.90081527,"ECCENTRICITY":0.0011504,"INCLINATION":51.6167,"RA_OF_ASC_NODE":173.8462,"ARG_OF_PERICENTER":2.0882,"MEAN_ANOMALY":358.017,"EPHEMERIS_TYPE":0,"CLASSIFICATION_TYPE":"U","NORAD_CAT_ID":66910,"ELEMENT_SET_NO":999,"REV_AT_EPOCH":2287,"BSTAR":0.0013957,"MEAN_MOTION_DOT":0.00429731,"MEAN_MOTION_DDOT":8.0311e-5},{"OBJECT_NAME":"ISS OBJECT XY","OBJECT_ID":"1998-067XY","EPOCH":"2026-04-27T10:24:15.702048","MEAN_MOTION":15.74632079,"ECCENTRICITY":0.0008145,"INCLINATION":51.6231,"RA_OF_ASC_NODE":178.6085,"ARG_OF_PERICENTER":359.2673,"MEAN_ANOMALY":0.8312,"EPHEMERIS_TYPE":0,"CLASSIFICATION_TYPE":"U","NORAD_CAT_ID":66912,"ELEMENT_SET_NO":999,"REV_AT_EPOCH":2280,"BSTAR":0.0010181,"MEAN_MOTION_DOT":0.00154701,"MEAN_MOTION_DDOT":0},{"OBJECT_NAME":"KNACKSAT-2","OBJECT_ID":"1998-067XZ","EPOCH":"2026-04-27T11:26:32.591904","MEAN_MOTION":15.55749912,"ECCENTRICITY":0.0012442,"INCLINATION":51.6292,"RA_OF_ASC_NODE":188.6917,"ARG_OF_PERICENTER":10.1086,"MEAN_ANOMALY":350.0153,"EPHEMERIS_TYPE":0,"CLASSIFICATION_TYPE":"U","NORAD_CAT_ID":67683,"ELEMENT_SET_NO":999,"REV_AT_EPOCH":1237,"BSTAR":0.00067466,"MEAN_MOTION_DOT":0.00047341,"MEAN_MOTION_DDOT":0},{"OBJECT_NAME":"CORAL","OBJECT_ID":"1998-067YA","EPOCH":"2026-04-27T10:16:32.663712","MEAN_MOTION":15.62963061,"ECCENTRICITY":0.001644,"INCLINATION":51.6273,"RA_OF_ASC_NODE":186.8615,"ARG_OF_PERICENTER":3.5901,"MEAN_ANOMALY":356.5208,"EPHEMERIS_TYPE":0,"CLASSIFICATION_TYPE":"U","NORAD_CAT_ID":67684,"ELEMENT_SET_NO":999,"REV_AT_EPOCH":1239,"BSTAR":0.0010925,"MEAN_MOTION_DOT":0.00102383,"MEAN_MOTION_DDOT":0},{"OBJECT_NAME":"GXIBA-1","OBJECT_ID":"1998-067YB","EPOCH":"2026-04-27T10:52:52.673088","MEAN_MOTION":15.56584455,"ECCENTRICITY":0.0014413,"INCLINATION":51.6296,"RA_OF_ASC_NODE":188.5354,"ARG_OF_PERICENTER":6.886,"MEAN_ANOMALY":353.2327,"EPHEMERIS_TYPE":0,"CLASSIFICATION_TYPE":"U","NORAD_CAT_ID":67685,"ELEMENT_SET_NO":999,"REV_AT_EPOCH":1237,"BSTAR":0.00064313,"MEAN_MOTION_DOT":0.00046585,"MEAN_MOTION_DDOT":0},{"OBJECT_NAME":"UITMSAT-2","OBJECT_ID":"1998-067YC","EPOCH":"2026-04-27T09:55:49.105056","MEAN_MOTION":15.58230676,"ECCENTRICITY":0.0011385,"INCLINATION":51.6293,"RA_OF_ASC_NODE":188.2738,"ARG_OF_PERICENTER":348.5075,"MEAN_ANOMALY":11.5656,"EPHEMERIS_TYPE":0,"CLASSIFICATION_TYPE":"U","NORAD_CAT_ID":67686,"ELEMENT_SET_NO":999,"REV_AT_EPOCH":1237,"BSTAR":0.00089003,"MEAN_MOTION_DOT":0.0006887,"MEAN_MOTION_DDOT":0},{"OBJECT_NAME":"HMU-SAT2","OBJECT_ID":"1998-067YD","EPOCH":"2026-04-27T11:08:14.467776","MEAN_MOTION":15.56244768,"ECCENTRICITY":0.0010538,"INCLINATION":51.6298,"RA_OF_ASC_NODE":188.6108,"ARG_OF_PERICENTER":349.5427,"MEAN_ANOMALY":10.5344,"EPHEMERIS_TYPE":0,"CLASSIFICATION_TYPE":"U","NORAD_CAT_ID":67687,"ELEMENT_SET_NO":999,"REV_AT_EPOCH":1229,"BSTAR":0.00073442,"MEAN_MOTION_DOT":0.00052524,"MEAN_MOTION_DDOT":0},{"OBJECT_NAME":"LEOPARD","OBJECT_ID":"1998-067YE","EPOCH":"2026-04-27T10:21:47.176128","MEAN_MOTION":15.57483765,"ECCENTRICITY":0.0011066,"INCLINATION":51.6296,"RA_OF_ASC_NODE":188.3964,"ARG_OF_PERICENTER":348.9618,"MEAN_ANOMALY":11.1129,"EPHEMERIS_TYPE":0,"CLASSIFICATION_TYPE":"U","NORAD_CAT_ID":67688,"ELEMENT_SET_NO":999,"REV_AT_EPOCH":1229,"BSTAR":0.00066868,"MEAN_MOTION_DOT":0.00050051,"MEAN_MOTION_DDOT":0},{"OBJECT_NAME":"CREW DRAGON 12","OBJECT_ID":"2026-031A","EPOCH":"2026-04-27T08:40:14.575584","MEAN_MOTION":15.48988133,"ECCENTRICITY":0.0007016,"INCLINATION":51.632,"RA_OF_ASC_NODE":191.6695,"ARG_OF_PERICENTER":356.2195,"MEAN_ANOMALY":3.874,"EPHEMERIS_TYPE":0,"CLASSIFICATION_TYPE":"U","NORAD_CAT_ID":67796,"ELEMENT_SET_NO":999,"REV_AT_EPOCH":56404,"BSTAR":0.00019594,"MEAN_MOTION_DOT":0.0001036,"MEAN_MOTION_DDOT":0},{"OBJECT_NAME":"PROGRESS-MS 33","OBJECT_ID":"2026-058A","EPOCH":"2026-04-27T08:40:14.575584","MEAN_MOTION":15.48988133,"ECCENTRICITY":0.0007016,"INCLINATION":51.632,"RA_OF_ASC_NODE":191.6695,"ARG_OF_PERICENTER":356.2195,"MEAN_ANOMALY":3.874,"EPHEMERIS_TYPE":0,"CLASSIFICATION_TYPE":"U","NORAD_CAT_ID":68319,"ELEMENT_SET_NO":999,"REV_AT_EPOCH":555,"BSTAR":0.00019594,"MEAN_MOTION_DOT":0.0001036,"MEAN_MOTION_DDOT":0},{"OBJECT_NAME":"CYGNUS NG-24","OBJECT_ID":"2026-079A","EPOCH":"2026-04-27T04:01:32.075040","MEAN_MOTION":15.48984622,"ECCENTRICITY":0.00070425,"INCLINATION":51.6319,"RA_OF_ASC_NODE":192.6271,"ARG_OF_PERICENTER":355.6641,"MEAN_ANOMALY":4.4286,"EPHEMERIS_TYPE":0,"CLASSIFICATION_TYPE":"U","NORAD_CAT_ID":68689,"ELEMENT_SET_NO":999,"REV_AT_EPOCH":249,"BSTAR":0.00020199612,"MEAN_MOTION_DOT":0.00010693,"MEAN_MOTION_DDOT":0},{"OBJECT_NAME":"PROGRESS-MS 34","OBJECT_ID":"2026-093A","EPOCH":"2026-04-26T05:38:27.075840","MEAN_MOTION":15.81015064,"ECCENTRICITY":0.00100985,"INCLINATION":51.6342,"RA_OF_ASC_NODE":197.6499,"ARG_OF_PERICENTER":15.4664,"MEAN_ANOMALY":344.6644,"EPHEMERIS_TYPE":0,"CLASSIFICATION_TYPE":"U","NORAD_CAT_ID":68837,"ELEMENT_SET_NO":999,"REV_AT_EPOCH":2,"BSTAR":0.00020343117,"MEAN_MOTION_DOT":0.000401,"MEAN_MOTION_DDOT":0}]
