ISS OBJECT XW           
1 66910U 98067XW  26117.40714006  .00429731  80311-4  13957-2 0  9991
2 66910  51.6167 173.8462 0011504   2.0882 358.0170 15.90081527 22873
ISS OBJECT XY           
1 66912U 98067XY  26117.43351507  .00154701  00000+0  10181-2 0  9999
2 66912  51.6231 178.6085 0008145 359.2673   0.8312 15.74632079 22802
KNACKSAT-2              
1 67683U 98067XZ  26117.47676611  .00047341  00000+0  67466-3 0  9995
2 67683  51.6292 188.6917 0012442  10.1086 350.0153 15.55749912 12374
CORAL                   
1 67684U 98067YA  26117.42815583  .00102383  00000+0  10925-2 0  9999
2 67684  51.6273 186.8615 0016440   3.5901 356.5208 15.62963061 12398
GXIBA-1                 
1 67685U 98067YB  26117.45338742  .00046585  00000+0  64313-3 0  9992
2 67685  51.6296 188.5354 0014413   6.8860 353.2327 15.56584455 12374
UITMSAT-2               
1 67686U 98067YC  26117.41376279  .00068870  00000+0  89003-3 0  9990
2 67686  51.6293 188.2738 0011385 348.5075  11.5656 15.58230676 12378
HMU-SAT2                
1 67687U 98067YD  26117.46405634  .00052524  00000+0  73442-3 0  9993
2 67687  51.6298 188.6108 0010538 349.5427  10.5344 15.56244768 12299
LEOPARD                 
1 67688U 98067YE  26117.43179602  .00050051  00000+0  66868-3 0  9991
2 67688  51.6296 188.3964 0011066 348.9618  11.1129 15.57483765 12298
CREW DRAGON 12          
1 67796U 26031A   26117.36127981  .00010360  00000+0  19594-3 0  9991
2 67796  51.6320 191.6695 0007016 356.2195   3.8740 15.48988133564047
PROGRESS-MS 33          
1 68319U 26058A   26117.36127981  .00010360  00000+0  19594-3 0  9992
2 68319  51.6320 191.6695 0007016 356.2195   3.8740 15.48988133  5555
CYGNUS NG-24            
1 68689U 26079A   26117.16773235  .00010693  00000+0  20200-3 0  9997
2 68689  51.6319 192.6271 0007042 355.6641   4.4286 15.48984622  2493
PROGRESS-MS 34          
1 68837U 26093A   26116.23503560  .00040100  00000+0  20343-3 0  9991
2 68837  51.6342 197.6499 0010098  15.4664 344.6644 15.81015064    28
